npsn,name,status,grade,district_id,district,regency_id,regency,province_id,province,latitude,longitude
P2960354,SKB KABUPATEN BUNGO,NEGERI,SKB,100213,Kec. Bathin III,100200,Kab. Bungo,100000,Prov. Jambi,-1.695475,101.867931
P9970065,SKB PORSEA ,NEGERI,SKB,71607,Kec. Porsea,71600,Kab. Toba Samosir,70000,Prov. Sumatera Utara,2.4692543,99.1392575
P9954248,SPNF SKB KOTA CIREBON,NEGERI,SKB,26304,Kec. Kesambi,26300,Kota Cirebon,20000,Prov. Jawa Barat,-6.7352,108.5324
P9996365,PNF SKB,NEGERI,SKB,286008,Kec. Citangkil,286000,Kota Cilegon,280000,Prov. Banten,-5.9910745,105.9913037
P9954175,SKB Kabupaten Bone,NEGERI,SKB,190725,Kec. Tanete Riattang,190700,Kab. Bone,190000,Prov. Sulawesi Selatan,-4.5572,120.338
P9969990,SKB KOTA TANJUNGPINANG,NEGERI,SKB,316101,Kec. Tanjung Pinang Barat,316100,Kota Tanjungpinang,310000,Prov. Kepulauan Riau,0.919306,104.4468926
P9948220,"SKB, KAB. KOLAKA",NEGERI,SKB,200415,Kec. Latambaga,200400,Kab. Kolaka,200000,Prov. Sulawesi Tenggara,-4.0548,121.592
P9954369,SKB KABUPATEN BOALEMO,NEGERI,SKB,300104,Kec. Tilamuta,300100,Kab. Boalemo,300000,Prov. Gorontalo,0.5251067,122.3565983
P9948403,SKB KOTA PANGKALPINANG,NEGERI,SKB,296005,Kec. Gerunggang,296000,Kota Pangkalpinang,290000,Prov. Kepulauan Bangka Belitung,-2.2114461,106.0634843
P9962697,SKB MOPIDO,NEGERI,SKB,180604,Kec. Baolan,180600,Kab. Tolitoli,180000,Prov. Sulawesi Tengah,1.0354,120.8179
P9959913,SKB WONOGIRI,NEGERI,SKB,31214,Kec. Wonogiri,31200,Kab. Wonogiri,30000,Prov. Jawa Tengah,-7.825774,110.9112867
P9945711,SKB BALIKPAPAN TIMUR,NEGERI,SKB,166102,Kec. Balikpapan Timur,166100,Kota Balikpapan,160000,Prov. Kalimantan Timur,-1.2244,116.9698
P9970007,SKB DISDIKBUD ACEH SELATAN,NEGERI,SKB,60709,Kec. Labuhan Haji,60700,Kab. Aceh Selatan,60000,Prov. Aceh,3.5731509,96.9759174
P9970045,SKB II TANAH DATAR,NEGERI,SKB,80710,Kec. Sungai Tarab,80700,Kab. Tanah Datar,80000,Prov. Sumatera Barat,-0.4077899,100.5464378
P9970262,SKB Tanah Bumbu,NEGERI,SKB,151101,Kec. Kusan Hilir,151100,Kab. Tanah Bumbu,150000,Prov. Kalimantan Selatan,-3.6082938,115.9348305
P9963179,SKB LABUHANBATU,NEGERI,SKB,70722,Kec. Rantau Utara,70700,Kab. Labuhan Batu,70000,Prov. Sumatera Utara,2.095145,99.8341086
P9970334,SKB KABUPATEN NGANJUK,NEGERI,SKB,51414,Kec. Nganjuk,51400,Kab. Nganjuk,50000,Prov. Jawa Timur,-7.6037,111.9082
P9970226,SKB Kabupaten Seluma,NEGERI,SKB,260811,Kec. Seluma Timur,260800,Kab. Seluma,260000,Prov. Bengkulu,-4.0886,102.5563
P9959904,SKB KOTA CIMAHI,NEGERI,SKB,26703,Kec. Cimahi Utara,26700,Kota Cimahi,20000,Prov. Jawa Barat,-6.8543,107.5393
P9959660,SPNF SKB WALMAS,NEGERI,SKB,191708,Kec. Walenrang,191700,Kab. Luwu,190000,Prov. Sulawesi Selatan,-2.8816,120.1577
P9970341,SKB NATUNA,NEGERI,SKB,310305,Kec. Bunguran Timur,310300,Kab. Natuna,310000,Prov. Kepulauan Riau,3.9261,108.3719
P9954349,SKB SONDER,NEGERI,SKB,170213,Kec. Sonder,170200,Kab. Minahasa,170000,Prov. Sulawesi Utara,1.266,124.7911
P9948162,Skb Kota Solok,NEGERI,SKB,86402,Kec. Tanjung Harapan,86400,Kota Solok,80000,Prov. Sumatera Barat,-0.7843,100.6733
P9970529,SATUAN PENDIDIKAN NONFORMAL (SPNF) KABUPATEN BINTAN,NEGERI,SKB,310106,Kec. Toapaya,310100,Kab. Bintan,310000,Prov. Kepulauan Riau,1.0672043,104.4418826
P9962889,SKB SEBATIK,NEGERI,SKB,340519,Kec. Sebatik Utara,340500,Kab. Nunukan,340000,Prov. Kalimantan Utara,4.1586965,117.8951584
P9952475,SKB Balikpapan Utara,NEGERI,SKB,166103,Kec. Balikpapan Utara,166100,Kota Balikpapan,160000,Prov. Kalimantan Timur,-1.2347,116.853
P9956821,SPN SKB MALRA,NEGERI,SKB,210201,Kec. Kei Kecil,210200,Kab. Maluku Tenggara,210000,Prov. Maluku,-5.6478,132.7488
P9959893,SPNF SKB KOTA BUKITTINGGI,NEGERI,SKB,86002,Kec. Mandiangin Koto Selayan,86000,Kota Bukittinggi,80000,Prov. Sumatera Barat,-0.2809,100.3397
P9952843,SKB KEBUMEN,NEGERI,SKB,30513,Kec. Pejagoan,30500,Kab. Kebumen,30000,Prov. Jawa Tengah,-7.6632739,109.6413606
P9970219,SKB KABUPATEN ENDE,NEGERI,SKB,240920,Kec. Ende Tengah,240900,Kab. Ende,240000,Prov. Nusa Tenggara Timur,-8.8415,121.6523
P9970441,SPNF SKB Kab. Kerinci,NEGERI,SKB,100507,Kec. Air Hangat,100500,Kab. Kerinci,100000,Prov. Jambi,-1.8946409,101.4940864
P9952648,SKB KABUPATEN SUKOHARJO,NEGERI,SKB,31104,Kec. Sukoharjo,31100,Kab. Sukoharjo,30000,Prov. Jawa Tengah,-7.6749979,110.834065
P9970257,Satuan Pendidikan Non Formal SKB Sangatta Selatan,NEGERI,SKB,161013,Kec. Sangatta Selatan,161000,Kab. Kutai Timur,160000,Prov. Kalimantan Timur,0.4543,117.5464
P9963040,SKB MAJALENGKA ,NEGERI,SKB,21607,Kec. Majalengka,21600,Kab. Majalengka,20000,Prov. Jawa Barat,-6.8438415,108.2276638
P9952513,SKB KOTA METRO,NEGERI,SKB,126103,Kec. Metro Barat,126100,Kota Metro,120000,Prov. Lampung,-5.1355,105.3086
P9959710,Satuan Pendidikan Non Formal Sanggar Kegiatan Belajar(SPNF-SKB) Kab.Dharmasraya,NEGERI,SKB,81204,Kec. Pulau Punjung,81200,Kab. Dharmasraya,80000,Prov. Sumatera Barat,-0.90364,101.482241
P9959761,SKB TINANGGEA,NEGERI,SKB,200501,Kec. Tinanggea,200500,Kab. Konawe Selatan,200000,Prov. Sulawesi Tenggara,-4.4397,122.2286
P9954302,SKB MAPANDE,NEGERI,SKB,180210,Kec. Sindue,180200,Kab. Donggala,180000,Prov. Sulawesi Tengah,-0.6107,119.8033
P9957084,SKB KAB.BUTON,NEGERI,SKB,200306,Kec. Pasar Wajo,200300,Kab. Buton,200000,Prov. Sulawesi Tenggara,-5.4982593,122.8402993
P9959689,SKB KOTA TARAKAN,NEGERI,SKB,346001,Kec. Tarakan Timur,346000,Kota Tarakan,340000,Prov. Kalimantan Utara,3.3097396,117.6390762
P9984800,SPNF TOMPASOBARU,NEGERI,SKB,170502,Kec. Tompaso Baru,170500,Kab. Minahasa Selatan,170000,Prov. Sulawesi Utara,0.9264016,124.5208487
P2965477,Satuan PNF SKB Kota Semarang,NEGERI,SKB,36302,Kec. Gunung Pati,36300,Kota Semarang,30000,Prov. Jawa Tengah,-7.1011,110.3729
P9952552,SKB LAMPUNG TIMUR,NEGERI,SKB,120712,Kec. Purbolinggo,120700,Kab. Lampung Timur,120000,Prov. Lampung,-4.9986,105.5132
P9945654,SKB KABUPATEN SUMENEP,NEGERI,SKB,52827,Kec. Batuan,52800,Kab. Sumenep,50000,Prov. Jawa Timur,-6.9965189,113.8251182
P9954079,SPNF WIL II,NEGERI,SKB,240301,Kec. Mollo Utara,240300,Kab. Timor Tengah Selatan,240000,Prov. Nusa Tenggara Timur,-9.7326,124.223
P9963020,SKB KOTA TIDORE KEPULAUAN,NEGERI,SKB,276108,Kec. Tidore,276100,Kota Tidore Kepulauan,270000,Prov. Maluku Utara,0.6718,127.448
P9959914,SKB KABUPATEN MUSI BANYUASIN,NEGERI,SKB,110104,Kec. Sekayu,110100,Kab. Musi Banyuasin,110000,Prov. Sumatera Selatan,0.3274,109.3849
P9954234,SKB KAB. PIDIE,NEGERI,SKB,60217,Kec. Peukan Baro,60200,Kab. Pidie,60000,Prov. Aceh,5.3429379,95.9656118
P9947985,Sanggar Kegiatan Belajar (SKB) Bintuni,NEGERI,SKB,320408,Kec. Bintuni,320400,Kab. Teluk Bintuni,320000,Prov. Papua Barat,-2.0889,133.6502
P2962074,SPNF SKB KLATEN,NEGERI,SKB,31005,Kec. Cawas,31000,Kab. Klaten,30000,Prov. Jawa Tengah,-7.7920437,110.7009566
P9959925,SKB MANDAILING NATAL,NEGERI,SKB,71505,Kec. Panyabungan Kota,71500,Kab. Mandailing Natal,70000,Prov. Sumatera Utara,0.8953443,99.5525928
P9963062,SKB REJANG LEBONG,NEGERI,SKB,260225,Kec. Curup Timur,260200,Kab. Rejang Lebong,260000,Prov. Bengkulu,-3.4484,102.5573
P9959677,SKB H. DARIYAH,NEGERI,SKB,60605,Kec. Johan Pahlawan,60600,Kab. Aceh Barat,60000,Prov. Aceh,4.175,96.1374
P9962735,UPTD SPNF SKB UNGARAN,NEGERI,SKB,32219,Kec. Ungaran Barat,32200,Kab. Semarang,30000,Prov. Jawa Tengah,-7.1348,110.4013
P9963107,SKB KABUPATEN SIGI,NEGERI,SKB,181010,Kec. Marawola,181000,Kab. Sigi,180000,Prov. Sulawesi Tengah,-0.9341,119.8715
P9963092,SKB KOTA BINJAI,NEGERI,SKB,76102,Kec. Binjai Kota,76100,Kota Binjai,70000,Prov. Sumatera Utara,3.6001,98.4794
P2965081,SPNF SKB Bone Bolango,NEGERI,SKB,300401,Kec. Tapa,300400,Kab. Bone Bolango,300000,Prov. Gorontalo,0.6109,123.0827
P9947929,SKB  KAB. MAMUJU,NEGERI,SKB,330102,Kec. Mamuju,330100,Kab. Mamuju,330000,Prov. Sulawesi Barat,-2.7064084,118.9431077
P9963167,SPNF SKB KAB.SOLOK,NEGERI,SKB,80409,Kec. Bukit Sundi,80400,Kab. Solok,80000,Prov. Sumatera Barat,-0.87092,100.700328
P9954303,SKB MAVALI,NEGERI,SKB,180208,Kec. Banawa,180200,Kab. Donggala,180000,Prov. Sulawesi Tengah,-0.6766,119.7468
P9962864,SKB Kota Banjarbaru,NEGERI,SKB,156105,Kec. Banjarbaru Selatan,156100,Kota Banjarbaru,150000,Prov. Kalimantan Selatan,-3.4463,114.8378
P9959940,SKB KONAWE UTARA,NEGERI,SKB,200909,Kec. Andowia,200900,Kab. Konawe Utara,200000,Prov. Sulawesi Tenggara,-3.5699565,122.1086713
P9959954,SKB GEDONG TATAAN,NEGERI,SKB,120905,Kec. Gedung Tataan,120900,Kab. Pesawaran,120000,Prov. Lampung,-5.3719392,105.192906
P2960303,UPTD SPNF SKB  KOTA BANJAR,NEGERI,SKB,26902,Kec. Purwaharja,26900,Kota Banjar,20000,Prov. Jawa Barat,-7.351371,108.572275
P9954094,SPNF SKB TIMOR TENGAH UTARA,NEGERI,SKB,240421,Kec. Insana Tengah,240400,Kab. Timor Tengah Utara,240000,Prov. Nusa Tenggara Timur,-9.4416,124.6434
P9970019,SKB KABUPATEN DOMPU,NEGERI,SKB,230503,Kec. Woja,230500,Kab. Dompu,230000,Prov. Nusa Tenggara Barat,-8.588667,118.3552097
P9962967,SKB Rokan Hulu,NEGERI,SKB,90908,Kec. Rambah Hilir,90900,Kab. Rokan Hulu,90000,Prov. Riau,0.9600675,100.3884356
P9963098,SKB REMBANG,NEGERI,SKB,31710,Kec. Rembang,31700,Kab. Rembang,30000,Prov. Jawa Tengah,-6.7099168,111.3842541
P9970296,SPNF SKB BONDOWOSO,NEGERI,SKB,52210,Kec. Bondowoso,52200,Kab. Bondowoso,50000,Prov. Jawa Timur,-7.9153,113.8095
P9970214,SKB TAKA BONERATE KEPULAUAN SELAYAR,NEGERI,SKB,191308,Kec. Taka Bonerate,191300,Kab. Kepulauan Selayar,190000,Prov. Sulawesi Selatan,-6.5032278,121.0378392
P9960014,SKB KABUPATEN KAUR,NEGERI,SKB,260703,Kec. Kaur Utara,260700,Kab. Kaur,260000,Prov. Bengkulu,-4.514,103.2013
P9948534,SPNF SKB KABUPATEN KENDAL,NEGERI,SKB,32415,Kec. Cepiring,32400,Kab. Kendal,30000,Prov. Jawa Tengah,-6.9365,110.1511
P9959935,SKB Temanggung,NEGERI,SKB,32303,Kec. Temanggung,32300,Kab. Temanggung,30000,Prov. Jawa Tengah,-7.295,110.1749
P9960034,SKB KAB. TOJO UNA-UNA,NEGERI,SKB,180910,Kec. Ratolindo,180900,Kab. Tojo Una-Una,180000,Prov. Sulawesi Tengah,-0.9267393,121.6020497
P9963024,SPNF - SKB KABUPATEN CIAMIS,NEGERI,SKB,21421,Kec. Ciamis,21400,Kab. Ciamis,20000,Prov. Jawa Barat,-7.3238463,108.3463542
P9962806,SATUAN PENDIDIKAN NONFORMAL KABUPATEN LOMBOK BARAT,NEGERI,SKB,230106,Kec. Gunung Sari,230100,Kab. Lombok Barat,230000,Prov. Nusa Tenggara Barat,-8.4822833,116.0954621
P9960031,SKB PADANG LAWAS UTARA,NEGERI,SKB,72302,Kec. Padang Bolak,72300,Kab. Padang Lawas utara,70000,Prov. Sumatera Utara,1.515743,99.62624
P9984803,SANGGAR KEGIATAN BELAJAR,NEGERI,SKB,131108,Kec. Nanga Pinoh,131100,Kab. Melawi,130000,Prov. Kalimantan Barat,-0.3796,111.7614
P9970215,SKB BENTENG KEPULAUAN SELAYAR,NEGERI,SKB,191307,Kec. Benteng,191300,Kab. Kepulauan Selayar,190000,Prov. Sulawesi Selatan,-6.1357,120.4633
P9954390,SANGGAR KEGIATAN BELAJAR (SKB) JEPARA,NEGERI,SKB,32006,Kec. Batealit,32000,Kab. Jepara,30000,Prov. Jawa Tengah,-6.6326,110.7529
P9954429,SPNF SKB BINTAUNA,NEGERI,SKB,170801,Kec. Bintauna,170800,Kab. Bolaang Mongondow Utara,170000,Prov. Sulawesi Utara,0.999,123.5676
P9956837,SKB KOTA TERNATE,NEGERI,SKB,276003,Kec. Ternate Utara,276000,Kota Ternate,270000,Prov. Maluku Utara,0.8239026,127.3775243
P9959990,SPNF SKB BANJARNEGARA,NEGERI,SKB,30406,Kec. Banjarnegara,30400,Kab. Banjarnegara,30000,Prov. Jawa Tengah,-7.3929,109.7161
P9947922,SKB OGAN ILIR,NEGERI,SKB,111001,Kec. Tanjung Raja,111000,Kab. Ogan Ilir,110000,Prov. Sumatera Selatan,-3.3443276,104.7783267
P9952798,SKB SEJIRAN SETASON MUNTOK,NEGERI,SKB,290403,Kec. Muntok,290400,Kab. Bangka Barat,290000,Prov. Kepulauan Bangka Belitung,-2.065746,105.164476
P9947701,SKB KRAKSAAN,NEGERI,SKB,52015,Kec. Kraksaan,52000,Kab. Probolinggo,50000,Prov. Jawa Timur,-7.7572,113.4266
P9954325,SKB Lima Puluh Kota,NEGERI,SKB,80302,Kec. Luak,80300,Kab. Lima Puluh Koto,80000,Prov. Sumatera Barat,-0.2887,100.6262
P9956856,SKB KOTA KUPANG,NEGERI,SKB,246001,Kec. Alak,246000,Kota Kupang,240000,Prov. Nusa Tenggara Timur,-10.16386,123.564586
P9970490,SPNF SKB GU,NEGERI,SKB,201606,Kec. Gu,201600,Kab. Buton Tengah,200000,Prov. Sulawesi Tenggara,-5.2531,122.5717
P9960039,SANGGAR KEGIATAN BELAJAR,NEGERI,SKB,40309,Kec. Wonosari,40300,Kab. Gunung Kidul,40000,Prov. D.I. Yogyakarta,-7.9694,110.6108
P9952699,UPTD SPNF SKB SALATIGA,NEGERI,SKB,36201,Kec. Argomulyo,36200,Kota Salatiga,30000,Prov. Jawa Tengah,-7.3590004,110.5122685
P9956850,SKB BANYUASIN,NEGERI,SKB,110703,Kec. Banyuasin III,110700,Kab. Banyuasin,110000,Prov. Sumatera Selatan,-2.900048,104.380636
P9959795,SPNF SKB PRINGSEWU,NEGERI,SKB,121005,Kec. Pringsewu,121000,Kab. Pringsewu,120000,Prov. Lampung,-5.3502,104.9687
P9952556,SKB BANTUL,NEGERI,SKB,40114,Kec. Sewon,40100,Kab. Bantul,40000,Prov. D.I. Yogyakarta,-7.852595,110.372435
P9970315,SPNF-SKB KERSANA,NEGERI,SKB,32912,Kec. Kersana,32900,Kab. Brebes,30000,Prov. Jawa Tengah,-6.9295,108.8689
P9984356,SPNF SANGGAR KEGIATAN BELAJAR (SKB),NEGERI,SKB,250206,Kec. Samofa,250200,Kab. Biak Numfor,250000,Prov. Papua,-1.0138214,136.0894889
P9970333,SANGGAR KEGIATAN BELAJAR KABUPATEN PENUKAL ABAB LEMATANG ILIR,NEGERI,SKB,111225,KEC. TALANG UBI,111200,Kab. Penukal Abab Lematang Ilir,110000,Prov. Sumatera Selatan,-3.2189,103.9054835
P9954376,SKB GROBOGAN ,NEGERI,SKB,31513,Kec. Purwodadi,31500,Kab. Grobogan,30000,Prov. Jawa Tengah,-7.1067,110.909
P9959997,SKB KATINGAN HARATI,NEGERI,SKB,140605,Kec. Katingan Hilir,140600,Kab. Katingan,140000,Prov. Kalimantan Tengah,-1.8653676,113.3817462
P9962667,SKB SINTANG ,NEGERI,SKB,130413,Kec. Sungai Tebelian,130400,Kab. Sintang,130000,Prov. Kalimantan Barat,-0.017281,111.452022
P9970167,SKB Kabupaten Kupang,NEGERI,SKB,240111,Kec. Kupang Barat,240100,Kab. Kupang,240000,Prov. Nusa Tenggara Timur,-10.2565,123.5687
P9945779,SKB PASAMAN,NEGERI,SKB,80208,Kec. Lubuk Sikaping,80200,Kab. Pasaman,80000,Prov. Sumatera Barat,0.1642,100.1524
P9956936,SKB POHUWATO,NEGERI,SKB,300312,Kec. Duhiadaa,300300,Kab. Pohuwato,300000,Prov. Gorontalo,0.4513754,121.9133251
P2960844,SKB KOTA YOGYAKARTA,NEGERI,SKB,46006,Kec. Gondokusuman,46000,Kota Yogyakarta,40000,Prov. D.I. Yogyakarta,-7.7969624,110.3785068
P9970508,SPNF-SKB WILAYAH II,NEGERI,SKB,61906,Kec. Wih Pesam,61900,Kab. Bener Meriah,60000,Prov. Aceh,4.7431831,96.8775606
P9952492,SKB KABUPATEN MAGELANG,NEGERI,SKB,30801,Kec. Salaman,30800,Kab. Magelang,30000,Prov. Jawa Tengah,-7.59377,110.1394415
P9962772,SKB LOMBOK TIMUR,NEGERI,SKB,230304,Kec. Sikur,230300,Kab. Lombok Timur,230000,Prov. Nusa Tenggara Barat,-8.6516,116.5201
P9984886,SPNF MODOINDING,NEGERI,SKB,170501,Kec. Modoinding,170500,Kab. Minahasa Selatan,170000,Prov. Sulawesi Utara,0.8375539,124.4409697
P9968075,SKB Kabupaten Tapin,NEGERI,SKB,150407,Kec. Tapin Utara,150400,Kab. Tapin,150000,Prov. Kalimantan Selatan,-2.9265815,115.1595329
P9970636,SKB KAB. SERAM BAGIAN TIMUR,NEGERI,SKB,210603,Kec. Bula,210600,Kab. Seram Bagian Timur,210000,Prov. Maluku,-3.1341913,130.4484838
P9948319,SKB TABALONG,NEGERI,SKB,150807,Kec. Murung Pudak,150800,Kab. Tabalong,150000,Prov. Kalimantan Selatan,-2.1327,115.4055
P9959968,SKB KABUPATEN BENGKULU SELATAN ,NEGERI,SKB,260306,Kec. Pino,260300,Kab. Bengkulu Selatan,260000,Prov. Bengkulu,-4.4078375,102.9605862
P9952584,SKB BLORA,NEGERI,SKB,31610,Kec. Kota Blora,31600,Kab. Blora,30000,Prov. Jawa Tengah,-6.968651,111.4084013
P9970198,SKB KABUPATEN SERANG,NEGERI,SKB,280408,Kec. Cikeusal,280400,Kab. Serang,280000,Prov. Banten,-6.2336128,106.2686922
P9952499,SKB Purwokerto,NEGERI,SKB,30227,Kec. Purwokerto Utara,30200,Kab. Banyumas,30000,Prov. Jawa Tengah,-7.40631,109.2455583
P9962676,SPNF SKB BENGKULU TENGAH,NEGERI,SKB,260902,Kec. Karang Tinggi,260900,Kab. Bengkulu Tengah,260000,Prov. Bengkulu,-3.7011,102.4076
P9945683,SKB KOTA JAMBI,NEGERI,SKB,106002,Kec. Jambi Selatan,106000,Kota Jambi,100000,Prov. Jambi,-1.608838,103.629318
P9970332,SPNF SKB kota Pematangsiantar,NEGERI,SKB,76305,Kec. Siantar Timur,76300,Kota Pematangsiantar,70000,Prov. Sumatera Utara,2.9665,99.082
P9959888,SKB OKU,NEGERI,SKB,110371,Kec. Baturaja Timur,110300,Kab. Ogan Komering Ulu,110000,Prov. Sumatera Selatan,-4.127602,104.170339
P9962927,SKB Karawang,NEGERI,SKB,22133,Kec. Karawang Barat,22100,Kab. Karawang,20000,Prov. Jawa Barat,-6.272875,107.3092527
P9948215,SPNF SKB Padang Panjang,NEGERI,SKB,86202,Kec. Padang Panjang Timur,86200,Kota Padang Panjang,80000,Prov. Sumatera Barat,-0.4648428,100.3850258
P9970280,SKB PAREPARE,NEGERI,SKB,196104,Kec. Bacukiki Barat,196100,Kota Parepare,190000,Prov. Sulawesi Selatan,-4.0224,119.6252
P9952911,SPNF SKB TAPANULI SELATAN,NEGERI,SKB,71001,Kec. Batang Angkola,71000,Kab. Tapanuli Selatan,70000,Prov. Sumatera Utara,1.2462,99.3438
P9963175,SKB KABUPATEN LEMBATA,NEGERI,SKB,241405,Kec. Nubatukan,241400,Kab. Lembata,240000,Prov. Nusa Tenggara Timur,-8.3709093,123.4214825
P9952915,SKB KUBU RAYA,NEGERI,SKB,131313,Kec. Rasau Jaya,131300,Kab. Kuburaya,130000,Prov. Kalimantan Barat,-0.2594,109.3657
P9960012,SPNF SKB Kota Manado,NEGERI,SKB,176008,Kec. Tuminting,176000,Kota Manado,170000,Prov. Sulawesi Utara,1.5116636,124.8499492
P9952888,SPNF - SKB Buleleng,NEGERI,SKB,220106,Kec. Buleleng,220100,Kab. Buleleng,220000,Prov. Bali,-8.1283,115.0651
P9963182,SPNF SKB SIKKA,NEGERI,SKB,240808,Kec. Alok,240800,Kab. Sikka,240000,Prov. Nusa Tenggara Timur,-8.6309176,122.2090715
P9996570,SANGGAR KEGIATAN BELAJAR (SKB) KOTA PRABUMULIH,NEGERI,SKB,116108,Kec. Prabumulih Selatan,116100,Kota Prabumulih,110000,Prov. Sumatera Selatan,-3.4711442,104.2181547
P9970344,SKB LAMPUNG SELATAN,NEGERI,SKB,120126,Kec. Kalianda,120100,Kab. Lampung Selatan,120000,Prov. Lampung,-5.690494,105.5727022
P9956933,SPNF SKB BANJAR,NEGERI,SKB,150105,Kec. Martapura,150100,Kab. Banjar,150000,Prov. Kalimantan Selatan,-3.4117284,114.8679416
P9954396,SKB SUMBA TENGAH,NEGERI,SKB,241804,Kec. Umbu Ratu Nggay Barat,241800,Kab. Sumba Tengah,240000,Prov. Nusa Tenggara Timur,-9.5041,119.5953
P9948532,SKB CILACAP,NEGERI,SKB,30114,Kec. Jeruklegi,30100,Kab. Cilacap,30000,Prov. Jawa Tengah,-7.5709,109.0257
P9948476,SKB Kota Bontang,NEGERI,SKB,166301,Kec. Bontang Selatan,166300,Kota Bontang,160000,Prov. Kalimantan Timur,0.1254,117.4752
P9984330,UPTD SPNF SKB KABUPATEN KLUNGKUNG,NEGERI,SKB,220602,Kec. Banjarangkan,220600,Kab. Klungkung,220000,Prov. Bali,-8.5448,115.3652
P9962878,SKB MUNA,NEGERI,SKB,200227,Kec. Batalaiworu,200200,Kab. Muna,200000,Prov. Sulawesi Tenggara,-4.8172906,122.715732
P9948327,SKB Kota Samarinda,NEGERI,SKB,166006,Kec. Samarinda Utara,166000,Kota Samarinda,160000,Prov. Kalimantan Timur,-0.4368,117.191
P9947977,SPNF SKB ENREKANG,NEGERI,SKB,191602,Kec. Enrekang,191600,Kab. Enrekang,190000,Prov. Sulawesi Selatan,-3.4507,119.7105
P9996934,SANGGAR KEGIATAN BELAJAR (SKB) RADEN MATTAHER,NEGERI,SKB,100603,Kec. Tebo Tengah,100600,Kab. Tebo,100000,Prov. Jambi,-1.5444416,102.4555879
P9962817,SPNF SKB KOTA TOMOHON,NEGERI,SKB,176204,Kec. Tomohon Timur,176200,Kota Tomohon,170000,Prov. Sulawesi Utara,1.3253508,124.8419767
P9952525,SPNF SKB LUBUK PAKAM,NEGERI,SKB,70130,Kec. Lubuk Pakam,70100,Kab. Deli Serdang,70000,Prov. Sumatera Utara,3.5283,98.875
P9960016,SKB KUTAI BARAT,NEGERI,SKB,160907,Kec. Barong Tongkok,160900,Kab. Kutai Barat,160000,Prov. Kalimantan Timur,-0.1830446,115.6973499
P9970680,SPNF SANGGAR KEGIATAN BELAJAR (SKB),NEGERI,SKB,61702,Kec. Tangan-Tangan,61700,Kab. Aceh Barat Daya,60000,Prov. Aceh,3.6724334,96.923261
P9968056,SKB BELU,NEGERI,SKB,240515,Kec. Rai Manuk,240500,Kab. Belu,240000,Prov. Nusa Tenggara Timur,-9.3024684,124.8671582
P9948430,SKB LIMBOTO,NEGERI,SKB,300207,Kec. Limboto,300200,Kab. Gorontalo,300000,Prov. Gorontalo,0.6276,122.9739
P9970583,SPNF - SKB WILAYAH III,NEGERI,SKB,61903,Kec. Bandar,61900,Kab. Bener Meriah,60000,Prov. Aceh,4.7342923,96.9368325
P9959659,SKB KOLAKA TIMUR,NEGERI,SKB,201119,KEC. TIRAWUTA,201100,Kab. Kolaka Timur,200000,Prov. Sulawesi Tenggara,-3.9953172,121.8788924
P9956926,SKB BUOL,NEGERI,SKB,180501,Kec. Biau,180500,Kab. Buol,180000,Prov. Sulawesi Tengah,1.2089655,121.40832
P9962727,SKB KOTA TASIKMALAYA,NEGERI,SKB,26806,Kec. Cipedes,26800,Kota Tasikmalaya,20000,Prov. Jawa Barat,-7.3108,108.2106
P9970187,SKB KABUPATEN TANGERANG,NEGERI,SKB,280302,Kec. Tiga raksa,280300,Kab. Tangerang,280000,Prov. Banten,-6.2476074,106.4674193
P9985043,SPNF - SKB KABUPATEN ACEH JAYA,NEGERI,SKB,61602,Kec. Krueng Sabee,61600,Kab. Aceh Jaya,60000,Prov. Aceh,4.8315039,95.9370327
P9948373,SKB PANGKAJENE DAN KEPULAUAN,NEGERI,SKB,190206,Kec. Bungoro,190200,Kab. Pangkajene Kepulauan,190000,Prov. Sulawesi Selatan,-4.8180989,119.5409771
P9954136,SKB Kabupaten Aceh Timur,NEGERI,SKB,60411,Kec. Peureulak,60400,Kab. Aceh Timur,60000,Prov. Aceh,4.926937,97.7933
P9985038,SKB OKU SELATAN,NEGERI,SKB,110904,Kec. Muaradua,110900,Kab. Ogan Komering Ulu Selatan,110000,Prov. Sumatera Selatan,-4.534129,104.065257
P9980055,SKB KAB.LEBAK,NEGERI,SKB,280213,Kec. Sajira,280200,Kab. Lebak,280000,Prov. Banten,-6.4680594,106.3166664
P9956894,SPNF SKB SONGULARA,NEGERI,SKB,180802,Kec. Parigi,180800,Kab. Parigi Moutong,180000,Prov. Sulawesi Tengah,-0.8479,120.1906
P9970384,SPNF SKB KOTA DEPOK,NEGERI,SKB,26602,Kec. Pancoran Mas,26600,Kota Depok,20000,Prov. Jawa Barat,-6.4012068,106.7964385
P9962957,SPNF SKB KOTA BEKASI,NEGERI,SKB,26507,Kec. Bekasi Utara,26500,Kota Bekasi,20000,Prov. Jawa Barat,-6.2296,107.0031
P9959833,SKB KABUPATEN SLEMAN,NEGERI,SKB,40208,Kec. Berbah,40200,Kab. Sleman,40000,Prov. D.I. Yogyakarta,-7.7915,110.4599
P9963095,SKB TUTUYAN,NEGERI,SKB,171103,Kec. Tutuyan,171100,Kab. Bolaang Mongondow Timur,170000,Prov. Sulawesi Utara,0.7528875,124.5857515
P9948091,SATUAN PENDIDIKAN NON FORMAL SKB SANGATTA UTARA,NEGERI,SKB,161004,Kec. Sangatta Utara,161000,Kab. Kutai Timur,160000,Prov. Kalimantan Timur,0.5427004,117.5305393
P9948206,SKB BANGGAI,NEGERI,SKB,180405,Kec. Luwuk,180400,Kab. Banggai,180000,Prov. Sulawesi Tengah,-0.9362,122.8068
P9970073,SKB KOTA PAYAKUMBUH,NEGERI,SKB,86502,Kec. Payakumbuh Timur,86500,Kota Payakumbuh,80000,Prov. Sumatera Barat,-0.2282556,100.6649729
P9984295,SKB MESUJI INDAH,NEGERI,SKB,121102,Kec. Tanjung Raya,121100,Kab. Mesuji,120000,Prov. Lampung,-4.0669904,105.3710458
P9959671,SKB SPNF KABUPATEN TEGAL,NEGERI,SKB,32812,Kec. Adiwerna,32800,Kab. Tegal,30000,Prov. Jawa Tengah,-6.9442,109.1301
P9952768,SKB KAKAS,NEGERI,SKB,170221,Kec. Kakas,170200,Kab. Minahasa,170000,Prov. Sulawesi Utara,1.0999,124.9265
P9948312,SKB ACEH UTARA ,NEGERI,SKB,60312,Kec. Tanah Luas,60300,Kab. Aceh Utara,60000,Prov. Aceh,5.097333,97.289931
P9996171,SPNF SKB BATANG HARI,NEGERI,SKB,100104,Kec. Muara Bulian,100100,Kab. Batang Hari,100000,Prov. Jambi,-1.7607866,103.271095
P9963162,SPN SEJENIS SKB KABUPATEN NIAS,NEGERI,SKB,71107,Kec. Gido,71100,Kab. Nias,70000,Prov. Sumatera Utara,1.129884,97.703864
P9970254,SPNF SKB Kabupaten Kepulauan Sula,NEGERI,SKB,270716,Kec. Sanana Utara,270700,Kab. Kepulauan Sula,270000,Prov. Maluku Utara,-1.9996,125.9617
P9934703,SKB Batang,NEGERI,SKB,32509,Kec. Subah,32500,Kab. Batang,30000,Prov. Jawa Tengah,-6.9711,109.8776
P9948196,SKB KABUPATEN WONOSOBO,NEGERI,SKB,30709,Kec. Wonosobo,30700,Kab. Wonosobo,30000,Prov. Jawa Tengah,-7.3608,109.9105
P9962766,SKB Kabupaten Badung,NEGERI,SKB,220403,Kec. Kuta Utara,220400,Kab. Badung,220000,Prov. Bali,-8.6332801,115.1633481
P9962956,SANGGAR KEGIATAN BELAJAR MOROWALI,NEGERI,SKB,180703,Kec. Bungku Tengah,180700,Kab. Morowali,180000,Prov. Sulawesi Tengah,-2.4985684,121.8898583
P9959937,SKB SIDRAP,NEGERI,SKB,191506,Kec. Maritengae,191500,Kab. Sidenreng Rappang,190000,Prov. Sulawesi Selatan,-3.8894713,119.8167596
P9970098,SKB Kabupaten Jembrana,NEGERI,SKB,220205,Kec. Jembrana,220200,Kab. Jembrana,220000,Prov. Bali,-8.3057437,114.6545834
P9970432,SPNF SKB KOTA BANDA ACEH,NEGERI,SKB,66103,Kec. Kuta Alam,66100,Kota Banda Aceh,60000,Prov. Aceh,5.5692,95.3421
P9962830,SKB Kabupaten Hulu Sungai Tengah,NEGERI,SKB,150608,Kec. Pandawan,150600,Kab. Hulu Sungai Tengah,150000,Prov. Kalimantan Selatan,-2.533755,115.3204653
P2970079,SKB Ujung Pandang,NEGERI,SKB,196005,Kec. Ujung Pandang,196000,Kota Makassar,190000,Prov. Sulawesi Selatan,-5.125,119.4241
P9952511,UPTD Satuan PNF SKB Aimere,NEGERI,SKB,241001,Kec. Aimere,241000,Kab. Ngada,240000,Prov. Nusa Tenggara Timur,-8.8503,120.8602
P9970501,SKB KABUPATEN PURWAKARTA,NEGERI,SKB,22010,Kec. Purwakarta,22000,Kab. Purwakarta,20000,Prov. Jawa Barat,-6.5319282,107.4565841
P9970190,SPNF SKB KABUPATEN TASIKMALAYA,NEGERI,SKB,21236,Kec. Mangunreja,21200,Kab. Tasikmalaya,20000,Prov. Jawa Barat,-7.3671,108.1127
P9970249,SKB KABUPATEN SUMBA TIMUR,NEGERI,SKB,241221,Kec. Kanatang,241200,Kab. Sumba Timur,240000,Prov. Nusa Tenggara Timur,-9.5442626,120.1716658
P9985006,Sanggar Kegiatan Belajar (SKB) Kota Tangerang Selatan,NEGERI,SKB,286305,Kec. Serpong,286300,Kota Tangerang Selatan,280000,Prov. Banten,-6.295088,106.6829328
P9970235,SKB Kabupaten Rote Ndao,NEGERI,SKB,241505,Kec. Rote Barat Laut,241500,Kab. Rote-Ndao,240000,Prov. Nusa Tenggara Timur,-10.7723774,122.9038205
P9970231,SKB Kota Sabang,NEGERI,SKB,66001,Kec. Sukajaya,66000,Kota Sabang,60000,Prov. Aceh,5.8825,95.3378
P9969974,SKB KABUPATEN SAMBAS,NEGERI,SKB,130102,Kec. Pemangkat,130100,Kab. Sambas,130000,Prov. Kalimantan Barat,1.1673,108.9654
P9952473,SKB Balikpapan Tengah,NEGERI,SKB,166103,Kec. Balikpapan Utara,166100,Kota Balikpapan,160000,Prov. Kalimantan Timur,-1.2348,116.8453
P9970118,SKB KABUPATEN GOWA ,NEGERI,SKB,190304,Kec. Somba Opu,190300,Kab. Gowa,190000,Prov. Sulawesi Selatan,-5.2004934,119.4798196
P9960040,SKB Palopo,NEGERI,SKB,196201,Kec. Wara,196200,Kota Palopo,190000,Prov. Sulawesi Selatan,-3.0034953,120.194947
P2964206,SKB KOTA SUKABUMI,NEGERI,SKB,26206,Kec. Lembur Situ,26200,Kota Sukabumi,20000,Prov. Jawa Barat,-6.9606,106.895
P9962901,SKB KOTA BANJARMASIN,NEGERI,SKB,156003,Kec. Banjarmasin Barat,156000,Kota Banjarmasin,150000,Prov. Kalimantan Selatan,-3.3211701,114.5905484
P9952864,SATUAN PENDIDIKAN NON FORMAL SKB WILAYAH 1,NEGERI,SKB,240302,Kec. Mollo Selatan,240300,Kab. Timor Tengah Selatan,240000,Prov. Nusa Tenggara Timur,-9.8079,124.22
P9970225,SKB ACEH TAMIANG,NEGERI,SKB,61406,Kec. Karang Baru,61400,Kab. Aceh Tamiang,60000,Prov. Aceh,4.3606776,98.0522193
P9970266,SKB (SANGGAR KEGIATAN BELAJAR) KOTA BIMA,NEGERI,SKB,236105,Kec. Mpunda,236100,Kota Bima,230000,Prov. Nusa Tenggara Barat,-8.4790023,118.7306101
P9959898,SKB KABUPATEN KAMPAR,NEGERI,SKB,90114,Kec. Salo,90100,Kab. Kampar,90000,Prov. Riau,0.2398541,101.0015607
P9959992,SKB KOTA SAWAHLUNTO,NEGERI,SKB,86303,Kec. Barangin,86300,Kota Sawah Lunto,80000,Prov. Sumatera Barat,-0.6648415,100.7609547
P9968109,SKB BANGGAI LAUT,NEGERI,SKB,181119,Kec. Banggai,181100,Kab. Banggai Laut,180000,Prov. Sulawesi Tengah,-1.5810104,123.5080975
P9970545,SKB KABUPATEN KEPULAUAN TALAUD,NEGERI,SKB,170403,Kec. Melonguane,170400,Kab. Kepulauan Talaud,170000,Prov. Sulawesi Utara,4.0265067,126.7037548
P9959887,SKB MINAHASA UTARA,NEGERI,SKB,170602,Kec. Airmadidi,170600,Kab. Minahasa Utara,170000,Prov. Sulawesi Utara,1.4248258,124.9774661
P9960045,UPTD SPNF SKB LARANTUKA,NEGERI,SKB,240703,Kec. Larantuka,240700,Kab. Flores Timur,240000,Prov. Nusa Tenggara Timur,-8.3126,123.0196
P9984822,SPNF TARERAN,NEGERI,SKB,170510,Kec. Tareran,170500,Kab. Minahasa Selatan,170000,Prov. Sulawesi Utara,1.1658482,124.7397443
P9959724,SKB KALIBAGOR,NEGERI,SKB,30210,Kec. Kalibagor,30200,Kab. Banyumas,30000,Prov. Jawa Tengah,-7.4876,109.2969
P9948234,SKB KOTA BAUBAU,NEGERI,SKB,206101,Kec. Betoambari,206100,Kota Baubau,200000,Prov. Sulawesi Tenggara,-5.4605,122.5986
P2967017,SATUAN PENDIDIKAN SANGGAR KEGIATAN BELAJAR KAB.KARANGASEM,NEGERI,SKB,220804,Kec. Karangasem,220800,Kab. Karang Asem,220000,Prov. Bali,-8.4688,115.6141
P9970337,SKB KOTA PALANGKA RAYA,NEGERI,SKB,146001,Kec. Pahandut,146000,Kota Palangka Raya,140000,Prov. Kalimantan Tengah,-2.2005319,113.9842835
P9956946,SKB PEMALANG,NEGERI,SKB,32712,Kec. Comal,32700,Kab. Pemalang,30000,Prov. Jawa Tengah,-6.8853378,109.5372832
P9984557,SATUAN PENDIDIKAN NONFORMAL SANGGAR KEGIATAN BELAJAR (SKB) KOTA TUAL,NEGERI,SKB,216102,Kec. Pulau Dullah Selatan,216100,Kota Tual,210000,Prov. Maluku,-5.6364112,132.7517778
P9970224,SKB KAB.DOGIYAI,NEGERI,SKB,253406,Kec. Kamu,253400,Kab. Dogiyai,250000,Prov. Papua,-3.9306099,135.9978255
P9954347,SPNF SKB KOTA KOTAMOBAGU,NEGERI,SKB,176301,Kec. Kotamobagu Barat,176300,Kota Kotamobagu,170000,Prov. Sulawesi Utara,0.7479,124.3064
P9948204,SKB BALANGAN,NEGERI,SKB,151004,Kec. Paringin,151000,Kab. Balangan,150000,Prov. Kalimantan Selatan,-2.3327,115.4638
P9959714,SKB KOTA PALEMBANG,NEGERI,SKB,116015,Kec. Alang-Alang Lebar,116000,Kota Palembang,110000,Prov. Sumatera Selatan,-2.952,104.7269
P9970238,SPNF SKB Kabupaten Bangli,NEGERI,SKB,220701,Kec. Susut,220700,Kab. Bangli,220000,Prov. Bali,-8.3950215,115.3499567
P9954132,SKB WONDAMA,NEGERI,SKB,320303,Kec. Rasiei,320300,Kab. Teluk Wondama,320000,Prov. Papua Barat,-2.8247407,134.5223
P9969988,SKB POSIMPOTOVE,NEGERI,SKB,186007,Kec. Tawaeli,186000,Kota Palu,180000,Prov. Sulawesi Tengah,-0.7009807,119.8617454
P9984754,SPNF TENGA,NEGERI,SKB,170505,Kec. Tenga,170500,Kab. Minahasa Selatan,170000,Prov. Sulawesi Utara,1.1074322,124.459093
P9959890,SKB SPNF WILAYAH 2 KOTA PADANG,NEGERI,SKB,86102,Kec. Lubuk Kilangan,86100,Kota Padang,80000,Prov. Sumatera Barat,-0.9535,100.458
P9954252,SKB WAKATOBI,NEGERI,SKB,200604,Kec. Wangi-Wangi,200600,Kab. Wakatobi,200000,Prov. Sulawesi Tenggara,-5.2399,123.5771
P9959919,SKB Asahan,NEGERI,SKB,70622,Kec. Kisaran Timur,70600,Kab. Asahan,70000,Prov. Sumatera Utara,2.9691546,99.6230312
P9962959,SKB MODAYAG,NEGERI,SKB,171104,Kec. Modayag,171100,Kab. Bolaang Mongondow Timur,170000,Prov. Sulawesi Utara,0.6775967,124.463879
P9996166,SATUAN PENDIDIKAN NONFORMAL SANGGAR KEGIATAN BELAJAR TENGKU SOELOENG TJANTIK,NEGERI,SKB,91504,Kec. Tebing Tinggi,91500,Kab. Kepulauan Meranti,90000,Prov. Riau,1.001445,102.7075919
P9947947,Satuan Pendidikan Nonformal SKB,NEGERI,SKB,72109,Kec. Sei Rampah,72100,Kab. Serdang Bedagai,70000,Prov. Sumatera Utara,3.4147,99.0807
P9970667,SKB Minahasa Tenggara,NEGERI,SKB,171004,Kec. Ratahan,171000,Kab. Minahasa Tenggara,170000,Prov. Sulawesi Utara,1.0775281,124.7915912
P9962879,SKB Kota Mataram,NEGERI,SKB,236002,Kec. Mataram,236000,Kota Mataram,230000,Prov. Nusa Tenggara Barat,-8.6181,116.1201
P9960028,SKB BARITO UTARA,NEGERI,SKB,140305,Kec. Teweh Tengah,140300,Kab. Barito Utara,140000,Prov. Kalimantan Tengah,-0.952161,114.892569
P2965536,SPNF SKB BANGKA SELATAN,NEGERI,SKB,290503,Kec. Toboali,290500,Kab. Bangka Selatan,290000,Prov. Kepulauan Bangka Belitung,-2.86131,106.464544
P9957004,SKB BENUA,NEGERI,SKB,200521,Kec. Benua,200500,Kab. Konawe Selatan,200000,Prov. Sulawesi Tenggara,-4.2722,122.1202
P9954382,SPNF SKB KOTA PEKANBARU,NEGERI,SKB,96004,Kec. Sail,96000,Kota Pekanbaru,90000,Prov. Riau,0.511689,101.4573909
P9954191,SKB SABU RAIJUA,NEGERI,SKB,242115,Kec. Sabu Barat,242100,Kab. Sabu Raijua,240000,Prov. Nusa Tenggara Timur,-10.5051044,121.8228772
P9962961,SKB WAWONII,NEGERI,SKB,201201,Kec. Wawonii Barat,201200,Kab. Konawe Kepulauan,200000,Prov. Sulawesi Tenggara,-4.0509944,123.0041926
P9959845,SPNF SKB  SIJUNJUNG,NEGERI,SKB,80807,Kec. Sijunjung,80800,Kab. Sijunjung,80000,Prov. Sumatera Barat,-0.62698,100.964695
P9952491,SKB Borong,NEGERI,SKB,242006,Kec. Borong,242000,Kab. Manggarai Timur,240000,Prov. Nusa Tenggara Timur,-8.7223,120.6361
P9959851,SKB ATINGGOLA,NEGERI,SKB,300502,Kec. Atinggola,300500,Kab. Gorontalo Utara,300000,Prov. Gorontalo,0.9189328,123.1016894
P9997290,SANGGAR KEGIATAN BELAJAR KABUPATEN TANA TIDUNG (SPNF SKB KABUPATEN TANA TIDUNG),NEGERI,SKB,340301,Kec. Sesayap,340300,Kab. Tana Tidung,340000,Prov. Kalimantan Utara,0,0
P9963004,SKB KABUPATEN ACEH TENGAH,NEGERI,SKB,60504,Kec. Pegasing,60500,Kab. Aceh Tengah,60000,Prov. Aceh,4.596,96.8108
P9997380,SKB KABUPATEN LINGGA,NEGERI,SKB,310402,Kec. Lingga,310400,Kab. Lingga,310000,Prov. Kepulauan Riau,0,0
P9956886,SKB Kab. Barito Kuala,NEGERI,SKB,150314,Kec. Marabahan,150300,Kab. Barito Kuala,150000,Prov. Kalimantan Selatan,-2.8832035,114.7166345
P9952737,SKB KOTA MALANG,NEGERI,SKB,56104,Kec. Blimbing,56100,Kota Malang,50000,Prov. Jawa Timur,-7.9557419,112.6606685
P9952702,SPNF SKB MAMASA,NEGERI,SKB,330403,Kec. Mamasa,330400,Kab. Mamasa,330000,Prov. Sulawesi Barat,-2.9411493,119.3814719
P9962984,SKB MAJENE,NEGERI,SKB,330512,Kec. Banggae Timur,330500,Kab. Majene,330000,Prov. Sulawesi Barat,-3.5318591,118.9975362
P9963099,SKB KOTA BANDAR LAMPUNG,NEGERI,SKB,126006,Kec. Tanjung Karang Pusat,126000,Kota Bandar Lampung,120000,Prov. Lampung,-5.4177,105.2525
P9959850,SKB KWANDANG,NEGERI,SKB,300503,Kec. Kwandang,300500,Kab. Gorontalo Utara,300000,Prov. Gorontalo,0.8249042,122.8943212
P9970283,SPNF SANGGAR KEGIATAN BELAJAR KABUPATEN KEEROM,NEGERI,SKB,252004,Kec. Arso,252000,Kab. Keerom,250000,Prov. Papua,-2.86841,140.744536
P9948108,SKB KULON PROGO,NEGERI,SKB,40402,Kec. Wates,40400,Kab. Kulon Progo,40000,Prov. D.I. Yogyakarta,-7.8631,110.1504
P9952678,SKB TENGGARONG,NEGERI,SKB,160211,Kec. Tenggarong Seberang,160200,Kab. Kutai Kartanegara,160000,Prov. Kalimantan Timur,-0.4177,117.0678
P9954362, SKB KOTABARU,NEGERI,SKB,150906,Kec. Pulau Laut Utara,150900,Kab. Kotabaru,150000,Prov. Kalimantan Selatan,-3.268095,116.232342
P9963051,SKB KABUPATEN LAHAT,NEGERI,SKB,110512,Kec. Lahat,110500,Kab. Lahat,110000,Prov. Sumatera Selatan,-3.767091,103.5497004
P9960024,SPNF SKB BIREUEN,NEGERI,SKB,61213,Kec. Kota Juang,61200,Kab. Bireuen,60000,Prov. Aceh,5.20898,96.7223408
P9948474,SKB MOJOAGUNG,NEGERI,SKB,50409,Kec. Mojoagung,50400,Kab. Jombang,50000,Prov. Jawa Timur,-7.6244,112.387
P9957060,SPN SKB KOTA KENDARI,NEGERI,SKB,206002,Kec. Poasia,206000,Kota Kendari,200000,Prov. Sulawesi Tenggara,-4.0072,122.5587
P9948431,SKB BATUDAA,NEGERI,SKB,300202,Kec. Batudaa,300200,Kab. Gorontalo,300000,Prov. Gorontalo,0.564274,122.950631
P9952767,SKB TOMBARIRI,NEGERI,SKB,170216,Kec. Tombariri,170200,Kab. Minahasa,170000,Prov. Sulawesi Utara,1.4112,124.6957
P9952766,SKB TOMBULU,NEGERI,SKB,170234,Kec. Tombulu,170200,Kab. Minahasa,170000,Prov. Sulawesi Utara,1.4194,124.8593
P9970185,SKB SINJAI,NEGERI,SKB,191207,Kec. Sinjai Utara,191200,Kab. Sinjai,190000,Prov. Sulawesi Selatan,-5.1200463,120.2704353
P9963035,SKB KOTA PARIAMAN,NEGERI,SKB,86602,Kec. Pariaman Tengah,86600,Kota Pariaman,80000,Prov. Sumatera Barat,-0.6322,100.1235
P9962902,SKB Negeri Mempawah,NEGERI,SKB,130210,Kec. Mempawah Hilir,130200,Kab. Mempawah,130000,Prov. Kalimantan Barat,0.3321,108.9654
P9970685,SKB KOTA BOGOR,NEGERI,SKB,26105,Kec. Kota Bogor Barat,26100,Kota Bogor,20000,Prov. Jawa Barat,-6.5605,106.7556
P9959866,UPTD SKB MAGETAN,NEGERI,SKB,51011,Kec. Maospati,51000,Kab. Magetan,50000,Prov. Jawa Timur,-7.5914,111.4263
P9963149,SKB KAB. BOGOR,NEGERI,SKB,20521,Kec. Cibinong,20500,Kab. Bogor,20000,Prov. Jawa Barat,-6.5204,106.8163
P9956897,SKB BALIK BUKIT,NEGERI,SKB,120404,Kec. Balik Bukit,120400,Kab. Lampung Barat,120000,Prov. Lampung,-5.0251682,104.101962
P9970576,SKB KABUPATEN BENGKAYANG,NEGERI,SKB,130804,Kec. Bengkayang,130800,Kab. Bengkayang,130000,Prov. Kalimantan Barat,0.8497,109.4975
P9952738,SKB Negeri Poso,NEGERI,SKB,180305,Kec. Poso Pesisir,180300,Kab. Poso,180000,Prov. Sulawesi Tengah,-1.4214,120.6678
P9952496,SKB Balikpapan Barat,NEGERI,SKB,166105,Kec. Balikpapan Barat,166100,Kota Balikpapan,160000,Prov. Kalimantan Timur,-1.2267,116.8199
P9997431,SKB PULUBALA,NEGERI,SKB,300211,Kec. Pulubala,300200,Kab. Gorontalo,300000,Prov. Gorontalo,0,0
P9984878,SKB KABUPATEN SUPIORI,NEGERI,SKB,252703,Kec. Supiori Timur,252700,Kab. Supiori,250000,Prov. Papua,-0.77841,135.734386
P9952804,SPNF SKB Merauke,NEGERI,SKB,250704,Kec. Merauke,250700,Kab. Merauke,250000,Prov. Papua,-8.4817,140.4125
P9997430,SKB BILUHU,NEGERI,SKB,300220,Kec. Biluhu,300200,Kab. Gorontalo,300000,Prov. Gorontalo,0,0
P9963073,SKB HALMAHERA UTARA,NEGERI,SKB,270401,Kec. Tobelo,270400,Kab. halmahera Utara,270000,Prov. Maluku Utara,1.7332207,128.0059675
P9962718,SKB HULU SUNGAI SELATAN,NEGERI,SKB,150505,Kec. Kandangan,150500,Kab. Hulu Sungai Selatan,150000,Prov. Kalimantan Selatan,-2.7087,115.2088
P9962926,SKB Kabupaten Agam,NEGERI,SKB,80114,Kec. Candung,80100,Kab. Agam,80000,Prov. Sumatera Barat,-0.31819,100.437677
P9984361,SKB MUTIARA PELANGI KASIH,NEGERI,SKB,210701,Kec. Pulau-Pulau Aru,210700,Kab. Kepulauan Aru,210000,Prov. Maluku,-5.7838,134.2216
P9970089,SKB BARRU,NEGERI,SKB,190603,Kec. Barru,190600,Kab. Barru,190000,Prov. Sulawesi Selatan,-4.3902177,119.6339811
P9952677,SKB KOTA BANGUN,NEGERI,SKB,160208,Kec. Kota Bangun,160200,Kab. Kutai Kartanegara,160000,Prov. Kalimantan Timur,-0.2593,116.5988
P9956789,SKB LAMPUNG TENGAH,NEGERI,SKB,120206,Kec. Punggur,120200,Kab. Lampung Tengah,120000,Prov. Lampung,-5.0383,105.2837
P9970582,SPNF - SKB WILAYAH IV,NEGERI,SKB,61904,Kec. Permata,61900,Kab. Bener Meriah,60000,Prov. Aceh,4.8034428,96.9516504
P9956944,UPT SKB BELITUNG,NEGERI,SKB,290206,Kec. Tanjung Pandan,290200,Kab. Belitung,290000,Prov. Kepulauan Bangka Belitung,-2.7477296,107.6903738
P9984657,SPNF SANGGAR KEGIATAN BELAJAR,NEGERI,SKB,22305,Kec. Cihampelas,22300,Kab. Bandung Barat,20000,Prov. Jawa Barat,-6.9183228,107.4205485
P9947923,SPNF SKB KOTA LHOKSEUMAWE,NEGERI,SKB,66203,Kec. Banda Sakti,66200,Kota Lhokseumawe,60000,Prov. Aceh,5.1779896,97.1469352
P9970370,SATUAN PENDIDIKAN NON FORMAL SANGGAR KEGIATAN BELAJAR (SKB) BARITO SELATAN,NEGERI,SKB,140210,Kec. Dusun Selatan,140200,Kab. Barito Selatan,140000,Prov. Kalimantan Tengah,-1.6489435,114.7434313
P9959912,SPNF SKB KOLAKA UTARA,NEGERI,SKB,200801,Kec. Lasusua,200800,Kab. Kolaka Utara,200000,Prov. Sulawesi Tenggara,-3.5125,120.8892
P9970517,SPNF-SKB WILAYAH I,NEGERI,SKB,61901,Kec. Timang Gajah,61900,Kab. Bener Meriah,60000,Prov. Aceh,4.765349,96.7901791
P9970139,SKB KABUPATEN INDRAMAYU,NEGERI,SKB,21815,Kec. Indramayu,21800,Kab. Indramayu,20000,Prov. Jawa Barat,-6.3170875,108.3533486
P9962780,SKB SUMEDANG,NEGERI,SKB,21003,Kec. Tanjungsari,21000,Kab. Sumedang,20000,Prov. Jawa Barat,-6.89561,107.806098
P9957053,Satuan Pendidikan NonFormal Sanggar Kegiatan Belajar (SKB) Kabupaten Solok Selat,NEGERI,SKB,81101,Kec. Sangir,81100,Kab. Solok Selatan,80000,Prov. Sumatera Barat,-1.59154,101.264355
P9963155,SPNF SKB KABUPATEN TABANAN,NEGERI,SKB,220304,Kec. Kediri,220300,Kab. Tabanan,220000,Prov. Bali,-8.5619,115.1364
P9984908,SKB NEGERI SURABAYA,NEGERI,SKB,56021,Kec. Kenjeran,56000,Kota Surabaya,50000,Prov. Jawa Timur,-7.2293,112.7727
P9948387,SKB KOTA AMBON,NEGERI,SKB,216002,Kec. Sirimau,216000,Kota Ambon,210000,Prov. Maluku,-3.6952,128.1895
P9952472,SKB Balikpapan Selatan,NEGERI,SKB,166101,Kec. Balikpapan Selatan,166100,Kota Balikpapan,160000,Prov. Kalimantan Timur,-1.2676,116.8336
P9959751,SPNF SKB ARGA MAKMUR,NEGERI,SKB,260106,Kec. Arga Makmur,260100,Kab. Bengkulu Utara,260000,Prov. Bengkulu,-3.4277,102.1919
P9970689,SKB KABUPATEN LANGKAT,NEGERI,SKB,70217,Kec. Babalan,70200,Kab. Langkat,70000,Prov. Sumatera Utara,4.0552343,98.3465112
P2963002,SPNF SKB KEPAHIANG,NEGERI,SKB,260504,Kec. Ujan Mas,260500,Kab. Kepahiang,260000,Prov. Bengkulu,-3.5411349,102.5192884
P9948229,SPNF SKB Kota Denpasar,NEGERI,SKB,226002,Kec. Denpasar Timur,226000,Kota Denpasar,220000,Prov. Bali,-8.6333,115.2403
P9963174,SKB KAB. BANDUNG,NEGERI,SKB,20814,Kec. Baleendah,20800,Kab. Bandung,20000,Prov. Jawa Barat,-7.0019,107.6201
P9957029,SKB KAB. BANGGAI KEPULAUAN,NEGERI,SKB,180104,Kec. Tinangkung,180100,Kab. Banggai Kepulauan,180000,Prov. Sulawesi Tengah,-1.3620406,123.302895
P9952926,SKB INDRAGIRI HULU,NEGERI,SKB,90406,Kec. Rengat Barat,90400,Kab. Indragiri Hulu,90000,Prov. Riau,-0.4049381,102.4664872
P9948292,SKB Kabupaten Padang Pariaman,NEGERI,SKB,80508,Kec. Sungai Limau,80500,Kab. Padang Pariaman,80000,Prov. Sumatera Barat,-0.5161155,100.0728155
P9970070,SKB DISDIKBUD KABUPATEN ACEH SINGKIL,NEGERI,SKB,61302,Kec. Singkil,61300,Kab. Aceh Singkil,60000,Prov. Aceh,2.3623598,97.800531
P9954167,SKB POLEWALI,NEGERI,SKB,330305,Kec. Polewali,330300,Kab. Polewali Mandar,330000,Prov. Sulawesi Barat,-3.4324928,119.3503543
P9952733,SATUAN PENDIDIKAN NON FORMAL SKB KAB. PONOROGO,NEGERI,SKB,51117,Kec. Ponorogo,51100,Kab. Ponorogo,50000,Prov. Jawa Timur,-7.8676,111.47
P9970248,SKB MUKOMUKO,NEGERI,SKB,260403,Kec. Kota Mukomuko,260400,Kab. Muko-muko,260000,Prov. Bengkulu,-2.5677068,101.1613168
P9959977,SKB KOTA TEGAL,NEGERI,SKB,36503,Kec. Tegal Barat,36500,Kota Tegal,30000,Prov. Jawa Tengah,-6.8598,109.1255
P9952751,SKB SURAKARTA,NEGERI,SKB,36103,Kec. Pasarkliwon,36100,Kota Surakarta,30000,Prov. Jawa Tengah,-7.5822,110.8317
P9959825,Satuan Pendidikan Nonformal SKB Tapanuli Tengah,NEGERI,SKB,70916,Kec. Pinang Sori,70900,Kab. Tapanuli Tengah,70000,Prov. Sumatera Utara,1.592383,98.8937554
P9948535,SKB KOTA GORONTALO,NEGERI,SKB,306007,Kec. Sipatana,306000,Kota Gorontalo,300000,Prov. Gorontalo,0.575941,123.053792
P9956966,SPNF SKB KABUPATEN KARO,NEGERI,SKB,70310,Kec. Berastagi,70300,Kab. Karo,70000,Prov. Sumatera Utara,3.15792,98.5104788
P9970006,SKB Halmahera Barat,NEGERI,SKB,270306,Kec. Jailolo,270300,Kab. Halmahera Barat,270000,Prov. Maluku Utara,1.059,127.4575
P9954262,SKB MANOKWARI,NEGERI,SKB,320516,Kec. Manokwari Selatan,320500,Kab. Manokwari,320000,Prov. Papua Barat,-1.0841828,134.0392252
P9948022,SKB Bantaeng,NEGERI,SKB,191006,Kec. Pa`jukukang,191000,Kab. Bantaeng,190000,Prov. Sulawesi Selatan,-5.5359,120.0514
P9969970,SKB HULU SUNGAI UTARA,NEGERI,SKB,150704,Kec. Amuntai Selatan,150700,Kab. Hulu Sungai Utara,150000,Prov. Kalimantan Selatan,-2.4197973,115.2098163
P9952456,SKB KOTA BATAM,NEGERI,SKB,316013,Kec. Sagulung,316000,Kota Batam,310000,Prov. Kepulauan Riau,1.048,103.944
P9970656,UPT Satuan Pendidikan Non Formal Sanggar Kegiatan Belajar (SKB),NEGERI,SKB,100401,Kec. Tungkal Ulu,100400,Kab. Tanjung Jabung Barat,100000,Prov. Jambi,-1.1164073,103.0988203
P9952734,SKB MOJOKERTO,NEGERI,SKB,50314,Kec. Gedeg,50300,Kab. Mojokerto,50000,Prov. Jawa Timur,-7.4549,112.4028
P9952815,SKB MASOHI,NEGERI,SKB,210116,Kec. Masohi,210100,Kab. Maluku Tengah,210000,Prov. Maluku,-3.292,128.9681
P9948366,SKB GUDO,NEGERI,SKB,50403,Kec. Gudo,50400,Kab. Jombang,50000,Prov. Jawa Timur,-7.638,112.2261
P9956883,SKB Kabupaten Simeulue,NEGERI,SKB,61102,Kec. Simeulue Timur,61100,Kab. Simeulue,60000,Prov. Aceh,2.43631,96.3711957
P9952765,SKB LEMBEAN TIMUR,NEGERI,SKB,170222,Kec. Lembean Timur,170200,Kab. Minahasa,170000,Prov. Sulawesi Utara,1.1886,125.0006
P9952698,SKB MUARA JAWA,NEGERI,SKB,160202,Kec. Muara Jawa,160200,Kab. Kutai Kartanegara,160000,Prov. Kalimantan Timur,-0.7871,117.2224
P9957068,SKB MORAMO,NEGERI,SKB,200505,Kec. Moramo,200500,Kab. Konawe Selatan,200000,Prov. Sulawesi Tenggara,-4.1482,122.646
P9970237,SPNF SKB KOTA BENGKULU,NEGERI,SKB,266006,Kec. Ratu Agung,266000,Kota Bengkulu,260000,Prov. Bengkulu,-3.8260027,102.2805436
P9970158,SKB. KOTAWARINGIN BARAT,NEGERI,SKB,140505,Kec. Arut Selatan,140500,Kab. Kotawaringin Barat,140000,Prov. Kalimantan Tengah,-2.7208,111.6484
P9959805,SANGGAR KEGIATAN BELAJAR KLU,NEGERI,SKB,230802,Kec. Gangga,230800,Kab. Lombok Utara,230000,Prov. Nusa Tenggara Barat,-8.3418566,116.2263488
P9954174,UPT SPNF KABUPATEN PURWOREJO,NEGERI,SKB,30609,Kec. Kutoarjo,30600,Kab. Purworejo,30000,Prov. Jawa Tengah,-7.7330509,109.9082634
P9947980,SKB LEBONG,NEGERI,SKB,260610,Kec. Pelabai,260600,Kab. Lebong,260000,Prov. Bengkulu,-3.103272,102.2159763
P9945791,SKB Kabupaten Soppeng,NEGERI,SKB,190902,Kec. Lalabata,190900,Kab. Soppeng,190000,Prov. Sulawesi Selatan,-4.3144,119.9206
P9956866,SKB RANOMEETO,NEGERI,SKB,200506,Kec. Ranomeeto,200500,Kab. Konawe Selatan,200000,Prov. Sulawesi Tenggara,-4.0403,122.4649
P9952505,SKB - SPNF KOTA PADANGSIDIMPUAN,NEGERI,SKB,76605,Kec. Padang Sidimpuan Tenggara,76600,Kota Padang Sidimpuan,70000,Prov. Sumatera Utara,1.347361,99.335918
P9954292,SKB ALOR,NEGERI,SKB,240616,Kec. Kabola,240600,Kab. Alor,240000,Prov. Nusa Tenggara Timur,-8.1927,124.5945
P9959723,SKB AJIBARANG,NEGERI,SKB,30214,Kec. Ajibarang,30200,Kab. Banyumas,30000,Prov. Jawa Tengah,-7.4440275,109.0684083
P9984718,SPNF TUMPAAN,NEGERI,SKB,170523,Kec. Tumpaan,170500,Kab. Minahasa Selatan,170000,Prov. Sulawesi Utara,1.3090174,124.7167459
P9948083,SPNF SKB KOTA SIBOLGA,NEGERI,SKB,76502,Kec. Sibolga Kota,76500,Kota Sibolga,70000,Prov. Sumatera Utara,1.7452,98.7779
P9962675,SKB TANJUNG JABUNG TIMUR,NEGERI,SKB,100890,Kec. Muara Sabak Timur,100800,Kab. Tanjung Jabung Timur,100000,Prov. Jambi,-1.126492,103.850733
P9962872,SKB ACEH BESAR,NEGERI,SKB,60117,Kec. Kota Jantho,60100,Kab. Aceh Besar,60000,Prov. Aceh,5.2995,95.5974
P2970085,SPNF SKB BIRINGKANAYA,NEGERI,SKB,196011,Kec. Biringkanaya,196000,Kota Makassar,190000,Prov. Sulawesi Selatan,-5.0801,119.5304
P9970298,SANGGAR KEGIATAN BELAJAR KUALA KAPUAS,NEGERI,SKB,140104,Kec. Selat,140100,Kab. Kapuas,140000,Prov. Kalimantan Tengah,-2.9640284,114.3870866
P9984799,SPNF MOTOLING,NEGERI,SKB,170504,Kec. Motoling,170500,Kab. Minahasa Selatan,170000,Prov. Sulawesi Utara,1.0121723,124.4431158
P9959889,SKB SPNF WILAYAH 1 KOTA PADANG,NEGERI,SKB,86105,Kec. Padang Timur,86100,Kota Padang,80000,Prov. Sumatera Barat,-0.939,100.3841
P9970331,SKB PELALAWAN,NEGERI,SKB,90805,Kec. Pangkalan Kerinci,90800,Kab. Pelalawan,90000,Prov. Riau,0.3991088,101.8559923
P9962736,UPTD SPNF SKB SUSUKAN,NEGERI,SKB,32203,Kec. Susukan,32200,Kab. Semarang,30000,Prov. Jawa Tengah,-7.4007781,110.6115565
P9996805,SKB NEGERI 2 SAMARINDA,NEGERI,SKB,166005,Kec. Samarinda Ulu,166000,Kota Samarinda,160000,Prov. Kalimantan Timur,-0.4753543,117.1503761
P9952917,UPT-SKB KABUPATEN DAIRI,NEGERI,SKB,70516,Kec. Sitinjo,70500,Kab. Dairi,70000,Prov. Sumatera Utara,2.7248,98.35
P9996456,SPNF SKB KOTA DUMAI,NEGERI,SKB,96207,Kec. Dumai Selatan,96200,Kota Dumai,90000,Prov. Riau,1.6199,101.3626
P9956860,SKB PACITAN,NEGERI,SKB,51204,Kec. Pacitan,51200,Kab. Pacitan,50000,Prov. Jawa Timur,-8.2087659,111.086799
P9959663,SPNF SKB BOTO,NEGERI,SKB,230702,Kec. Taliwang,230700,Kab. Sumbawa Barat,230000,Prov. Nusa Tenggara Barat,-8.7440396,116.8063501
P9970179,SKB Sangihe,NEGERI,SKB,170323,Kec. Tahuna Timur,170300,Kab. Kep. Sangihe,170000,Prov. Sulawesi Utara,3.5929334,125.5015233
P9959939,SKB KABUPATEN BIMA,NEGERI,SKB,230602,Kec. Bolo,230600,Kab. Bima,230000,Prov. Nusa Tenggara Barat,-8.5226693,118.6341957
P9954139,SKB KAIDIPANG,NEGERI,SKB,170804,Kec. Kaidipang,170800,Kab. Bolaang Mongondow Utara,170000,Prov. Sulawesi Utara,0.9118838,123.2660525
P9970484,SKB KAB. MUNA BARAT,NEGERI,SKB,201310,Kec. Tiworo Kepulauan,201300,Kab. Muna Barat,200000,Prov. Sulawesi Tenggara,-4.7624812,122.4444469
P9996838,SKB HALMAHERA SELATAN,SWASTA,SKB,270504,Kec. Bacan,270500,Kab. Halmahera Selatan,270000,Prov. Maluku Utara,-0.5785828,127.4006017
P9954127,SPNF SKB BELOPA,NEGERI,SKB,191703,Kec. Belopa,191700,Kab. Luwu,190000,Prov. Sulawesi Selatan,-3.4224,120.3688
P9970475,UPTD SPNF SKB Kabupaten Gianyar,NEGERI,SKB,220503,Kec. Gianyar,220500,Kab. Gianyar,220000,Prov. Bali,-8.5554965,115.3414935
P9997335,SANGGAR KEGIATAN BELAJAR (SKB) MEMPURA,NEGERI,SKB,91115,Kec. Mempura,91100,Kab. Siak,90000,Prov. Riau,0,0
P9962800,SKB Sungailiat,NEGERI,SKB,290109,Kec. Sungailiat,290100,Kab. Bangka,290000,Prov. Kepulauan Bangka Belitung,-1.8235601,106.1141905
P9954379,SKB PINRANG,NEGERI,SKB,191404,Kec. Watang Sawitto,191400,Kab. Pinrang,190000,Prov. Sulawesi Selatan,-3.8,119.6512
P9962890,UPT SKB TAKALAR,NEGERI,SKB,190408,Kec. Pattallassang,190400,Kab. Takalar,190000,Prov. Sulawesi Selatan,-5.4180309,119.451367
P9962833,SKB KOTA GUNUNGSITOLI,NEGERI,SKB,76701,Kec. Gunungsitoli Idanoi,76700,Kota Gunungsitoli,70000,Prov. Sumatera Utara,1.1963,97.6723
P9970175,SATUAN PENDIDIKAN NONFORMAL SANGGAR KEGIATAN BELAJAR,NEGERI,SKB,70410,Kec. Raya,70400,Kab. Simalungun,70000,Prov. Sumatera Utara,2.9713,98.8531
P9954268,SKB JENEPONTO,NEGERI,SKB,190502,Kec. Tamalatea,190500,Kab. Jeneponto,190000,Prov. Sulawesi Selatan,-5.608,119.7162
P9970396,SKB PASANGKAYU,NEGERI,SKB,330201,Kec. Pasangkayu,330200,Kab. Pasangkayu,330000,Prov. Sulawesi Barat,-1.1850896,119.398093
P9970625,SKB HALMAHERA TENGAH,NEGERI,SKB,270203,Kec. Weda,270200,Kab. Halmahera Tengah,270000,Prov. Maluku Utara,0.3291,127.8559
P9952605,SATUAN PENDIDIKAN NONFORMAL SEJENIS SKB KABUPATEN PULANG PISAU,NEGERI,SKB,141104,Kec. Kahayan Hilir,141100,Kab. Pulang Pisau,140000,Prov. Kalimantan Tengah,-2.6841844,114.2739552
P9954138,SKB PINOGALUMAN,NEGERI,SKB,170805,Kec. Pinogaluman,170800,Kab. Bolaang Mongondow Utara,170000,Prov. Sulawesi Utara,0.9155,123.1396
P2963591,SKB Kota Medan,NEGERI,SKB,76014,Kec. Medan Barat,76000,Kota Medan,70000,Prov. Sumatera Utara,3.6072,98.6673
P9970186,SKB KABUPATEN CIANJUR,NEGERI,SKB,20717,Kec. Ciranjang,20700,Kab. Cianjur,20000,Prov. Jawa Barat,-6.7969,107.2744
P9952681,SKB KUNINGAN,NEGERI,SKB,21514,Kec. Cigugur,21500,Kab. Kuningan,20000,Prov. Jawa Barat,-6.977843,108.459167
P9952812,SATUAN PNF SKB KABUPATEN BURU,NEGERI,SKB,210310,Kec. Namlea,210300,Kab. Buru,210000,Prov. Maluku,-3.2436036,127.0792982
P9956815,SKB BOLMONG,NEGERI,SKB,170110,Kec. Bolaang,170100,Kab. Bolaang Mongondow,170000,Prov. Sulawesi Utara,0.9094,124.0983
P9970246,SKB WAY KANAN,NEGERI,SKB,120804,Kec. Blambangan Umpu,120800,Kab. Way Kanan,120000,Prov. Lampung,-4.5348281,104.5303155
P2967065,SPNF SKB KOTA PONTIANAK,NEGERI,SKB,136003,Kec. Pontianak Barat,136000,Kota Pontianak,130000,Prov. Kalimantan Barat,-0.0066,109.3091
P9954173,SPNF-SKB BOLANGITANG,NEGERI,SKB,170803,Kec. Bolaang Itang Barat,170800,Kab. Bolaang Mongondow Utara,170000,Prov. Sulawesi Utara,0.8847,123.3353
P9962712,SKB Kota Serang,NEGERI,SKB,286201,Kec. Cipocok Jaya,286200,Kota Serang,280000,Prov. Banten,-6.145422,106.1740798
P9970199,SKB PANDEGLANG,NEGERI,SKB,280139,Kec. Majasari,280100,Kab. Pandeglang,280000,Prov. Banten,-6.3218202,106.0836297
P9984713,SKB NIKA TIDI,NEGERI,SKB,251907,Kec. Pantai Timur Bagian Barat,251900,Kab. Sarmi,250000,Prov. Papua,-1.9713388,138.967675
P9970539,SATUAN PENDIDIKAN NON-FORMAL SKB PULAU TALIABU,NEGERI,SKB,270101,Kec. Taliabu Barat,270100,Kab. Pulau Taliabu,270000,Prov. Maluku Utara,-1.9457,124.3851
P9970612,SKB GROGOL,NEGERI,SKB,51314,Kec. Grogol,51300,Kab. Kediri,50000,Prov. Jawa Timur,-7.7493048,111.9806647
P9984253,SKB KABUPATEN SAROLANGUN,NEGERI,SKB,100303,Kec. Sarolangun,100300,Kab. Sarolangun,100000,Prov. Jambi,-2.2831414,102.7443506
P9959909,SKB MUSI RAWAS,NEGERI,SKB,110604,Kec. Tugu Mulyo,110600,Kab. Musi Rawas,110000,Prov. Sumatera Selatan,-3.1598331,102.983318
P9959835,SPNF SKB KAB. SUKABUMI,NEGERI,SKB,20614,Kec. Cikembar,20600,Kab. Sukabumi,20000,Prov. Jawa Barat,-6.9644,106.8014
P9962758,SKB UPT KOTA BANDUNG,NEGERI,SKB,26002,Kec. Babakan Ciparay,26000,Kota Bandung,20000,Prov. Jawa Barat,-6.951478,107.581343
P9957042,SKB SANGGAU,NEGERI,SKB,130318,Kec. Kembayan,130300,Kab. Sanggau,130000,Prov. Kalimantan Barat,0.558127,110.436636
P9968122,SKB TULANG BAWANG PINTAR,NEGERI,SKB,120505,Kec. Menggala,120500,Kab. Tulang Bawang,120000,Prov. Lampung,-4.5459,105.2162
P9984284,SKB BUTON SELATAN,NEGERI,SKB,201401,Kec. Batauga,201400,Kab. Buton Selatan,200000,Prov. Sulawesi Tenggara,-5.6820143,122.514966
P9997094,SPNF SKB SAKA PANDE,NEGERI,SKB,180214,Kec. Dampelas,180200,Kab. Donggala,180000,Prov. Sulawesi Tengah,0.2620392,119.9213851
P9970230,SKB KABUPATEN BEKASI,NEGERI,SKB,22218,Kec. Cikarang Barat,22200,Kab. Bekasi,20000,Prov. Jawa Barat,-6.338,107.0418
P9959988,SPN SKB BOMBANA,NEGERI,SKB,200718,Kec. Rumbia Tengah,200700,Kab. Bombana,200000,Prov. Sulawesi Tenggara,-4.7812,122.0604
P9963091,SKB OKU TIMUR,NEGERI,SKB,110801,Kec. Martapura,110800,Kab. Ogan Komering Ulu Timur,110000,Prov. Sumatera Selatan,-4.286666,104.3177803
P9963171,SKB SENGKANG,NEGERI,SKB,190802,Kec. Tempe,190800,Kab. Wajo,190000,Prov. Sulawesi Selatan,-4.1187,120.0269
P9970536,SPNF KABUPATEN KEPULAUAN YAPEN,NEGERI,SKB,250306,Kec. Yapen Selatan,250300,Kab. Kepulauan Yapen,250000,Prov. Papua,-1.8803,136.2411
P9948008,SKB Kab. Pekalongan,NEGERI,SKB,32608,Kec. Kajen,32600,Kab. Pekalongan,30000,Prov. Jawa Tengah,-7.0390076,109.5980286
P9963156,SPNF SKB KABUPATEN MUARO JAMBI,NEGERI,SKB,100704,Kec. Sekernan,100700,Kab. Muaro Jambi,100000,Prov. Jambi,-1.494146,103.525091
P9962900,SKB UNAAHA,NEGERI,SKB,200116,Kec. Unaaha,200100,Kab. Konawe,200000,Prov. Sulawesi Tenggara,-3.8579,122.0578
P9962919,SKB KABUPATEN MALANG,NEGERI,SKB,51816,Kec. Kepanjen,51800,Kab. Malang,50000,Prov. Jawa Timur,-8.1462,112.5674
P9948159,SKB LAMPUNG UTARA,NEGERI,SKB,120305,Kec. Abung Selatan,120300,Kab. Lampung Utara,120000,Prov. Lampung,-4.8844154,104.9770955
P9952615,SKB BULUKUMBA,NEGERI,SKB,191101,Kec. Gantarang,191100,Kab. Bulukumba,190000,Prov. Sulawesi Selatan,-5.5317,120.1944
P9962680,UPT SKB PAKPAK BHARAT,NEGERI,SKB,71801,Kec. Salak,71800,Kab. Pakpak Bharat,70000,Prov. Sumatera Utara,2.5518,98.3249
P9997508,SKB YPPK TILLEMANS,SWASTA,SKB,251003,Kec. Paniai Timur,251000,Kab. Paniai,250000,Prov. Papua,0,0
P9970240,UPTD SPNF SKB KOTA KEDIRI,NEGERI,SKB,56301,Kec. Mojoroto,56300,Kota Kediri,50000,Prov. Jawa Timur,-7.821,111.999
P9970150,SKB SEKOLAH NON FORMAL NEGERI SUBANG,NEGERI,SKB,21907,Kec. Subang,21900,Kab. Subang,20000,Prov. Jawa Barat,-6.5526314,107.7508125
P9948434,SATUAN PENDIDIKAN SKB MUARA ENIM,NEGERI,SKB,110404,Kec. Muara Enim,110400,Kab. Muara Enim,110000,Prov. Sumatera Selatan,-3.6458,103.7751
P9984924,SPNF SKB MAMUJU TENGAH,NEGERI,SKB,330603,Kec. Topoyo,330600,Kab. Mamuju Tengah,330000,Prov. Sulawesi Barat,-2.0682,119.2853
P9970002,SKB PESISIR SELATAN,NEGERI,SKB,80610,Kec. Bayang,80600,Kab. Pesisir Selatan,80000,Prov. Sumatera Barat,-1.240907,100.5238495
P9954205,SKB KAB. MINAHASA SELATAN,NEGERI,SKB,170518,Kec. Amurang Timur,170500,Kab. Minahasa Selatan,170000,Prov. Sulawesi Utara,1.2185,124.6023
P9947908,SKB N PASAMAN BARAT,NEGERI,SKB,81306,Kec. Kinali,81300,Kab. Pasaman Barat,80000,Prov. Sumatera Barat,-0.0875699,99.8342721
P9948014,SKB KABUPATEN SUMBAWA,NEGERI,SKB,230405,Kec. Alas,230400,Kab. Sumbawa,230000,Prov. Nusa Tenggara Barat,-8.5147,116.9942
P9970335,SKB Kabupaten Berau,NEGERI,SKB,160306,Kec. Tanjung Redeb,160300,Kab. Berau,160000,Prov. Kalimantan Timur,2.1430488,117.4934495
P9948212,SPNF SKB DINAS PENDIDIKAN KAB. NAGAN RAYA,NEGERI,SKB,61508,Kec. Suka Makmue,61500,Kab. Nagan Raya,60000,Prov. Aceh,4.1531,96.3249
P9963111,SKB KABUPATEN TANGGAMUS,NEGERI,SKB,120619,Kec. Kota Agung Timur,120600,Kab. Tanggamus,120000,Prov. Lampung,-5.5072539,104.6777877
P9962863,SKB LOMBOK TENGAH,NEGERI,SKB,230207,Kec. Jonggat,230200,Kab. Lombok Tengah,230000,Prov. Nusa Tenggara Barat,-8.682168,116.226793
P9948456,SKB TOLANGOHULA,NEGERI,SKB,300215,Kec. Tolangohula,300200,Kab. Gorontalo,300000,Prov. Gorontalo,0.7555656,122.6010272
P9970305,SKB KOTA JAYAPURA,NEGERI,SKB,256002,Kec. Abepura,256000,Kota Jayapura,250000,Prov. Papua,-2.6838,140.6925
P9952854,SKB KAB.PATI,NEGERI,SKB,31810,Kec. Pati,31800,Kab. Pati,30000,Prov. Jawa Tengah,-6.7561,111.0201
P9970042,SKB I TANAH DATAR,NEGERI,SKB,80706,Kec. Tanjung Emas,80700,Kab. Tanah Datar,80000,Prov. Sumatera Barat,-0.4495727,100.6523839
P9984436,SPNF SKB PIDIE JAYA,NEGERI,SKB,62005,Kec. Meurah Dua,62000,Kab. Pidie Jaya,60000,Prov. Aceh,5.027489,96.3218356
P9970468,SKB Tana Toraja,NEGERI,SKB,191802,Kec. Mengkendek,191800,Kab. Tana Toraja,190000,Prov. Sulawesi Selatan,-3.2022196,119.9426484
P9960021,SKB LAONTI,NEGERI,SKB,200510,Kec. Laonti,200500,Kab. Konawe Selatan,200000,Prov. Sulawesi Tenggara,-4.194494,122.8487478
P9945822,SPNF SKB SIBOLANGIT,NEGERI,SKB,70103,Kec. Sibolangit,70100,Kab. Deli Serdang,70000,Prov. Sumatera Utara,3.262,98.5313
P9996428,UPT SANGGAR KEGIATAN BELAJAR (SKB) LUWU UTARA,NEGERI,SKB,192415,Kec. Mappedeceng,192400,Kab. Luwu Utara,190000,Prov. Sulawesi Selatan,-2.394267,120.4550667
P9945823,SPNF NEGERI SKB KETAPANG,NEGERI,SKB,130621,Kec. Benua Kayong,130600,Kab. Ketapang,130000,Prov. Kalimantan Barat,-1.8525,109.993
P9959736,SKB Melati,NEGERI,SKB,253501,Kec. Tigi,253500,Kab. Deiyai,250000,Prov. Papua,-4.0463827,136.2825131
P9952822,SKB TONDANO,NEGERI,SKB,170238,Kec. Tondano Selatan,170200,Kab. Minahasa,170000,Prov. Sulawesi Utara,1.2547,124.9056
P9954306,Satuan PNF SKB Manggarai Barat,NEGERI,SKB,241601,Kec. Komodo,241600,Kab. Manggarai Barat,240000,Prov. Nusa Tenggara Timur,-8.473,119.8947
P9959858,SKB BURU SELATAN,NEGERI,SKB,210904,Kec. Namrole,210900,Kab. Buru Selatan,210000,Prov. Maluku,-3.8329,126.734
P9970446,SKB MAPPI,NEGERI,SKB,251403,Kec. Obaa,251400,Kab. Mappi,250000,Prov. Papua,-6.5049125,139.33457
P9957036,SKB Demak,NEGERI,SKB,32107,Kec. Demak,32100,Kab. Demak,30000,Prov. Jawa Tengah,-6.9042,110.6254
P9970686,SPNF SKB KABUPATEN CIREBON,NEGERI,SKB,21726,Kec. Dukupuntang,21700,Kab. Cirebon,20000,Prov. Jawa Barat,-6.7632,108.4457
P9952868,SPN SKB KAB. GARUT,NEGERI,SKB,21116,Kec. Cisurupan,21100,Kab. Garut,20000,Prov. Jawa Barat,-7.306906,107.795463
P9984395,SKB Kab. Fakfak,NEGERI,SKB,320110,Kec. Pariwari,320100,Kab. Fak-Fak,320000,Prov. Papua Barat,-2.9106,132.2807
P9948120,SPNF SKB BOLAANG MONGONDOW SELATAN,NEGERI,SKB,171201,Kec. Bolaang Uki,171200,Kab. Bolaang Mongondow Selatan,170000,Prov. Sulawesi Utara,0.3829753,124.0363488
P9959998,SKB NAGEKEO,NEGERI,SKB,241701,Kec. Aesesa,241700,Kab. Nagakeo,240000,Prov. Nusa Tenggara Timur,-8.5895159,121.2562944
P9970011,UPT SKB BOYOLALI,NEGERI,SKB,30913,Kec. Simo,30900,Kab. Boyolali,30000,Prov. Jawa Tengah,-7.423725,110.7041033
P9968116,SKB KAB. PASER,NEGERI,SKB,160103,Kec. Paser Belengkong,160100,Kab. Paser,160000,Prov. Kalimantan Timur,-1.9595809,116.2849804
P9962784,SKB KASINTUVU,NEGERI,SKB,186008,Kec. Mantikulore,186000,Kota Palu,180000,Prov. Sulawesi Tengah,-0.878,119.8728
P9959824,SKB Kab. Situbondo,NEGERI,SKB,52314,Kec. Arjasa,52300,Kab. Situbondo,50000,Prov. Jawa Timur,-7.7341,114.1438
P9959809,SKB CERME,NEGERI,SKB,50105,Kec. Cerme,50100,Kab. Gresik,50000,Prov. Jawa Timur,-7.2342,112.5622
P9970216,SKB Kab. Kotawaringin Timur,NEGERI,SKB,140406,Kec. Mentawa Baru Ketapang,140400,Kab. Kotawaringin Timur,140000,Prov. Kalimantan Tengah,-2.5343,112.8855
P9968096,SPNF SKB PELAIHARI,NEGERI,SKB,150206,Kec. Pelaihari,150200,Kab. Tanah Laut,150000,Prov. Kalimantan Selatan,-3.7870023,114.7031216
P9954204,SKB  KABUPATEN MERANGIN ,NEGERI,SKB,100906,Kec. Tabir,100900,Kab. Merangin,100000,Prov. Jambi,-1.8392,102.3132
P9970184,SKB KABUPATEN ACEH TENGGARA,NEGERI,SKB,60805,Kec. Badar,60800,Kab. Aceh Tenggara,60000,Prov. Aceh,3.5187,97.7898
P9957031,SKB Buton Utara,NEGERI,SKB,201001,Kec. Kulisusu,201000,Kab. Buton Utara,200000,Prov. Sulawesi Tenggara,-4.7824989,123.1896
P9962887,SKB NUNUKAN,NEGERI,SKB,340509,Kec. Nunukan Selatan,340500,Kab. Nunukan,340000,Prov. Kalimantan Utara,4.03996,117.7106163
P9969987,SKB RANDONG,NEGERI,SKB,241112,Kec. Ruteng,241100,Kab. Manggarai,240000,Prov. Nusa Tenggara Timur,-8.6065854,120.400797
P9948398,SKB KARANGANYAR,NEGERI,SKB,31309,Kec. Karanganyar,31300,Kab. Karanganyar,30000,Prov. Jawa Tengah,-7.5984571,110.9719647
P9963067,SKB KOTA PAGAR ALAM,NEGERI,SKB,116301,Kec. Pagar Alam Utara,116300,Kota Pagar Alam,110000,Prov. Sumatera Selatan,-4.0172977,103.2520822
P9952712,SPNF SANGGAR KEGIATAN BELAJAR (SKB) KUANTAN SINGINGI,NEGERI,SKB,91402,Kec. Kuantan Tengah,91400,Kab. Kuantan Singingi,90000,Prov. Riau,-0.547,101.4975
P9962685,SANGGAR KEGIATAN BELAJAR (SKB) MAROS,NEGERI,SKB,190112,Kec. Simbang,190100,Kab. Maros,190000,Prov. Sulawesi Selatan,-5.019,119.6767
P9962692,SKB TRENGGALEK,NEGERI,SKB,51711,Kec. Trenggalek,51700,Kab. Trenggalek,50000,Prov. Jawa Timur,-8.0371,111.7106
P9960003,SKB Kota Bitung,NEGERI,SKB,176102,Kec. Matuari,176100,Kota Bitung,170000,Prov. Sulawesi Utara,1.429799,125.1178362
P9970534,UPT SPNF SKB SIDOARJO,NEGERI,SKB,50208,Kec. Tulangan,50200,Kab. Sidoarjo,50000,Prov. Jawa Timur,-7.463,112.6431
